{
  "type": "FeatureCollection",
  "features": [
    {
      "type": "Feature",
      "properties": {
        "norad_id": 66954,
        "name": "HULIANWANG DIGUI-115",
        "group": "last-30-days",
        "lat": 6.108672634713303,
        "lon": -15.184399496778342,
        "alt_km": 1012.5615762259849,
        "timestamp": "2025-12-17T10:52:53.102519+00:00",
        "meta_object_name": "HULIANWANG DIGUI-115",
        "meta_object_id": "2025-287B",
        "meta_epoch": "2025-12-16T06:46:51.247776",
        "meta_mean_motion": 13.68792269,
        "meta_eccentricity": 0.00088535,
        "meta_inclination": 86.4976,
        "meta_ra_of_asc_node": 344.8667,
        "meta_arg_of_pericenter": 193.3846,
        "meta_mean_anomaly": 166.7079,
        "meta_ephemeris_type": 0,
        "meta_classification_type": "U",
        "meta_norad_cat_id": 66954,
        "meta_element_set_no": 999,
        "meta_rev_at_epoch": 101,
        "meta_bstar": 2.3546402e-05,
        "meta_mean_motion_dot": 3.7e-07,
        "meta_mean_motion_ddot": 0,
        "tle_line1": "1 66954U 25287B   25350.28253759  .00000037  00000+0  23546-4 0  9993",
        "tle_line2": "2 66954  86.4976 344.8667 0008853 193.3846 166.7079 13.68792269  1019"
      },
      "geometry": {
        "type": "Point",
        "coordinates": [
          -15.184399496778342,
          6.108672634713303
        ]
      }
    },
    {
      "type": "Feature",
      "properties": {
        "norad_id": 66955,
        "name": "HULIANWANG DIGUI-116",
        "group": "last-30-days",
        "lat": 6.672365667899235,
        "lon": -15.159759813329284,
        "alt_km": 1013.7783500674595,
        "timestamp": "2025-12-17T10:52:53.102529+00:00",
        "meta_object_name": "HULIANWANG DIGUI-116",
        "meta_object_id": "2025-287C",
        "meta_epoch": "2025-12-16T22:33:49.631328",
        "meta_mean_motion": 13.68336064,
        "meta_eccentricity": 0.00083854,
        "meta_inclination": 86.4911,
        "meta_ra_of_asc_node": 344.6162,
        "meta_arg_of_pericenter": 184.6101,
        "meta_mean_anomaly": 175.4982,
        "meta_ephemeris_type": 0,
        "meta_classification_type": "U",
        "meta_norad_cat_id": 66955,
        "meta_element_set_no": 999,
        "meta_rev_at_epoch": 110,
        "meta_bstar": 0.00016607861,
        "meta_mean_motion_dot": 1.58e-06,
        "meta_mean_motion_ddot": 0,
        "tle_line1": "1 66955U 25287C   25350.94015777  .00000158  00000+0  16608-3 0  9997",
        "tle_line2": "2 66955  86.4911 344.6162 0008385 184.6101 175.4982 13.68336064  1101"
      },
      "geometry": {
        "type": "Point",
        "coordinates": [
          -15.159759813329284,
          6.672365667899235
        ]
      }
    },
    {
      "type": "Feature",
      "properties": {
        "norad_id": 66956,
        "name": "HULIANWANG DIGUI-117",
        "group": "last-30-days",
        "lat": 13.01110049001069,
        "lon": -14.749380497201654,
        "alt_km": 1009.7544175385974,
        "timestamp": "2025-12-17T10:52:53.102540+00:00",
        "meta_object_name": "HULIANWANG DIGUI-117",
        "meta_object_id": "2025-287D",
        "meta_epoch": "2025-12-16T06:45:06.569856",
        "meta_mean_motion": 13.69018692,
        "meta_eccentricity": 0.00077617,
        "meta_inclination": 86.4974,
        "meta_ra_of_asc_node": 344.867,
        "meta_arg_of_pericenter": 181.5999,
        "meta_mean_anomaly": 178.5137,
        "meta_ephemeris_type": 0,
        "meta_classification_type": "U",
        "meta_norad_cat_id": 66956,
        "meta_element_set_no": 999,
        "meta_rev_at_epoch": 101,
        "meta_bstar": 2.3352809e-05,
        "meta_mean_motion_dot": 3.7e-07,
        "meta_mean_motion_ddot": 0,
        "tle_line1": "1 66956U 25287D   25350.28132604  .00000037  00000+0  23353-4 0  9996",
        "tle_line2": "2 66956  86.4974 344.8670 0007761 181.5999 178.5137 13.69018692  1016"
      },
      "geometry": {
        "type": "Point",
        "coordinates": [
          -14.749380497201654,
          13.01110049001069
        ]
      }
    },
    {
      "type": "Feature",
      "properties": {
        "norad_id": 66957,
        "name": "HULIANWANG DIGUI-118",
        "group": "last-30-days",
        "lat": 13.754201637126435,
        "lon": -14.705768868313482,
        "alt_km": 1011.0959764112031,
        "timestamp": "2025-12-17T10:52:53.102550+00:00",
        "meta_object_name": "HULIANWANG DIGUI-118",
        "meta_object_id": "2025-287E",
        "meta_epoch": "2025-12-16T22:31:52.685472",
        "meta_mean_motion": 13.68572561,
        "meta_eccentricity": 0.00076986,
        "meta_inclination": 86.4948,
        "meta_ra_of_asc_node": 344.6222,
        "meta_arg_of_pericenter": 176.7313,
        "meta_mean_anomaly": 183.3897,
        "meta_ephemeris_type": 0,
        "meta_classification_type": "U",
        "meta_norad_cat_id": 66957,
        "meta_element_set_no": 999,
        "meta_rev_at_epoch": 110,
        "meta_bstar": 0.00016345129,
        "meta_mean_motion_dot": 1.57e-06,
        "meta_mean_motion_ddot": 0,
        "tle_line1": "1 66957U 25287E   25350.93880423  .00000157  00000+0  16345-3 0  9993",
        "tle_line2": "2 66957  86.4948 344.6222 0007698 176.7313 183.3897 13.68572561  1100"
      },
      "geometry": {
        "type": "Point",
        "coordinates": [
          -14.705768868313482,
          13.754201637126435
        ]
      }
    },
    {
      "type": "Feature",
      "properties": {
        "norad_id": 66958,
        "name": "CZ-6A R/B",
        "group": "last-30-days",
        "lat": 81.21022561530683,
        "lon": 7.583515407386451,
        "alt_km": 826.2651569902873,
        "timestamp": "2025-12-17T10:52:53.102562+00:00",
        "meta_object_name": "CZ-6A R/B",
        "meta_object_id": "2025-287F",
        "meta_epoch": "2025-12-16T22:26:39.577056",
        "meta_mean_motion": 13.94920634,
        "meta_eccentricity": 0.01073224,
        "meta_inclination": 86.5058,
        "meta_ra_of_asc_node": 344.5056,
        "meta_arg_of_pericenter": 89.5421,
        "meta_mean_anomaly": 271.805,
        "meta_ephemeris_type": 0,
        "meta_classification_type": "U",
        "meta_norad_cat_id": 66958,
        "meta_element_set_no": 999,
        "meta_rev_at_epoch": 112,
        "meta_bstar": 0.00010708607,
        "meta_mean_motion_dot": 1.7e-06,
        "meta_mean_motion_ddot": 0,
        "tle_line1": "1 66958U 25287F   25350.93518029  .00000170  00000+0  10709-3 0  9997",
        "tle_line2": "2 66958  86.5058 344.5056 0107322  89.5421 271.8050 13.94920634  1127"
      },
      "geometry": {
        "type": "Point",
        "coordinates": [
          7.583515407386451,
          81.21022561530683
        ]
      }
    },
    {
      "type": "Feature",
      "properties": {
        "norad_id": 66959,
        "name": "STARLINK-35887",
        "group": "last-30-days",
        "lat": -25.10286201436337,
        "lon": -11.415167707767996,
        "alt_km": 306.71123185211854,
        "timestamp": "2025-12-17T10:52:53.102573+00:00",
        "meta_object_name": "STARLINK-35887",
        "meta_object_id": "2025-288A",
        "meta_epoch": "2025-12-16T14:00:03.000384",
        "meta_mean_motion": 15.91064311,
        "meta_eccentricity": 0.00016179,
        "meta_inclination": 43.0008,
        "meta_ra_of_asc_node": 143.7995,
        "meta_arg_of_pericenter": 269.3707,
        "meta_mean_anomaly": 2.8159,
        "meta_ephemeris_type": 0,
        "meta_classification_type": "U",
        "meta_norad_cat_id": 66959,
        "meta_element_set_no": 999,
        "meta_rev_at_epoch": 245,
        "meta_bstar": -0.0037977459,
        "meta_mean_motion_dot": -0.01103717,
        "meta_mean_motion_ddot": 0,
        "tle_line1": "1 66959U 25288A   25350.58336806 -.01103717  00000+0 -37977-2 0  9990",
        "tle_line2": "2 66959  43.0008 143.7995 0001617 269.3707   2.8159 15.91064311  2456"
      },
      "geometry": {
        "type": "Point",
        "coordinates": [
          -11.415167707767996,
          -25.10286201436337
        ]
      }
    },
    {
      "type": "Feature",
      "properties": {
        "norad_id": 66960,
        "name": "STARLINK-35879",
        "group": "last-30-days",
        "lat": -26.089501843017764,
        "lon": -9.901676773607864,
        "alt_km": 306.6330374053414,
        "timestamp": "2025-12-17T10:52:53.102585+00:00",
        "meta_object_name": "STARLINK-35879",
        "meta_object_id": "2025-288B",
        "meta_epoch": "2025-12-16T14:00:03.000384",
        "meta_mean_motion": 15.91117419,
        "meta_eccentricity": 0.00016613,
        "meta_inclination": 43.0008,
        "meta_ra_of_asc_node": 143.7955,
        "meta_arg_of_pericenter": 270.1089,
        "meta_mean_anomaly": 3.6197,
        "meta_ephemeris_type": 0,
        "meta_classification_type": "U",
        "meta_norad_cat_id": 66960,
        "meta_element_set_no": 999,
        "meta_rev_at_epoch": 245,
        "meta_bstar": -0.0038106711,
        "meta_mean_motion_dot": -0.0110978,
        "meta_mean_motion_ddot": 0,
        "tle_line1": "1 66960U 25288B   25350.58336806 -.01109780  00000+0 -38107-2 0  9994",
        "tle_line2": "2 66960  43.0008 143.7955 0001661 270.1089   3.6197 15.91117419  2455"
      },
      "geometry": {
        "type": "Point",
        "coordinates": [
          -9.901676773607864,
          -26.089501843017764
        ]
      }
    }
  ]
}